NORAD_CAT_ID,OBJECT_NAME,OBJECT_TYPE,EPOCH,MEAN_MOTION,ECCENTRICITY,INCLINATION,RA_OF_ASC_NODE,ARG_OF_PERICENTER,MEAN_ANOMALY,BSTAR,MEAN_MOTION_DOT,MEAN_MOTION_DDOT,TLE_LINE0,TLE_LINE1,TLE_LINE2,SEMIMAJOR_AXIS,PERIOD,APOGEE,PERIGEE,DECAYED
53825.0,STARLINK-4751,PAYLOAD,2022-09-23 16:00:00,15.87856947,0.0031828,53.2174,236.2244,55.4989,31.9293,-0.0043953999999999,-0.01262812,0.00044953,0 STARLINK-4751,1 53825U 22114H   22266.66667824 -.01262812  44953-3 -43954-2 0  9995,2 53825  53.2174 236.2244 0031828  55.4989  31.9293 15.87856947  1303,6686.429,90.688,329.576,287.013,0.0
53825.0,STARLINK-4751,PAYLOAD,2022-09-24 06:00:00,15.86322231,0.0026338,53.2172,233.2791,57.053,125.3042,-0.0047687,-0.01251872,0.00043631,0 STARLINK-4751,1 53825U 22114H   22267.25001157 -.01251872  43631-3 -47687-2 0  9995,2 53825  53.2172 233.2791 0026338  57.0530 125.3042 15.86322231  1397,6690.741,90.776,330.228,294.9840000000001,0.0
53825.0,STARLINK-4751,PAYLOAD,2022-09-24 14:00:01,15.85515784,0.0022767,53.2168,231.5971,57.3183,229.3086,-0.005424,-0.0135751,0.00050205,0 STARLINK-4751,1 53825U 22114H   22267.58335648 -.01357510  50205-3 -54240-2 0  9990,2 53825  53.2168 231.5971 0022767  57.3183 229.3086 15.85515784  1302,6693.01,90.822,330.11300000000006,299.637,0.0
53825.0,STARLINK-4751,PAYLOAD,2022-09-24 22:00:00,15.84630442,0.0019234999999999,53.2176,229.918,55.7386,334.0156,-0.0055143,-0.01164061,0.0,0 STARLINK-4751,1 53825U 22114H   22267.91667824 -.01164061  00000-0 -55143-2 0  9996,2 53825  53.2176 229.9180 0019235  55.7386 334.0156 15.84630442  1307,6695.503000000002,90.873,330.246,304.4890000000001,0.0
53825.0,STARLINK-4751,PAYLOAD,2022-09-25 14:00:01,15.82924936,0.0012285,53.2174,226.5677,50.0916,182.9013,-0.0063278,-0.01232131,0.0,0 STARLINK-4751,1 53825U 22114H   22268.58334491 -.01232131  00000-0 -63278-2 0  9993,2 53825  53.2174 226.5677 0012285  50.0916 182.9013 15.82924936  1601,6700.311,90.971,330.407,313.945,0.0
53825.0,STARLINK-4751,PAYLOAD,2022-09-25 22:00:01,15.82046349,0.000849,53.2175,224.8946,46.4056,286.7173,-0.0065051,-0.01211737,0.0,0 STARLINK-4751,1 53825U 22114H   22268.91668981 -.01211737  00000-0 -65051-2 0  9994,2 53825  53.2175 224.8946 0008490  46.4056 286.7173 15.82046349  1309,6702.791,91.021,330.347,318.966,0.0
53825.0,STARLINK-4751,PAYLOAD,2022-09-26 10:00:00,15.807531699999998,0.0005099,53.217,222.3919,35.3413,265.8461,-0.0070081,-0.01223285,0.0,0 STARLINK-4751,1 53825U 22114H   22269.41667824 -.01223285  00000-0 -70081-2 0  9995,2 53825  53.2170 222.3919 0005099  35.3413 265.8461 15.80753170  1733,6706.446999999999,91.096,331.731,324.892,0.0
53825.0,STARLINK-4751,PAYLOAD,2022-09-26 14:00:01,15.80302788,0.0004393,53.2174,221.557,30.1409,139.9096,-0.0069771999999999,-0.01195447,0.0,0 STARLINK-4751,1 53825U 22114H   22269.58334491 -.01195447  00000-0 -69772-2 0  9997,2 53825  53.2174 221.5570 0004393  30.1409 139.9096 15.80302788  1308,6707.721,91.122,332.532,326.639,0.0
53825.0,STARLINK-4751,PAYLOAD,2022-09-26 22:00:00,15.79453259,0.0003017,53.2177,219.8908,313.4231,313.5522,-0.0074665999999999,-0.01225155,0.0,0 STARLINK-4751,1 53825U 22114H   22269.91667824 -.01225155  00000-0 -74666-2 0  9991,2 53825  53.2177 219.8908 0003017 313.4231 313.5522 15.79453259  1816,6710.126,91.171,334.015,329.966,0.0
53825.0,STARLINK-4751,PAYLOAD,2022-09-27 14:00:01,15.77665169,0.0006362999999999,53.2173,216.5651,275.2032,182.5295,-0.0075417,-0.01152063,0.0,0 STARLINK-4751,1 53825U 22114H   22270.58334491 -.01152063  00000-0 -75417-2 0  9999,2 53825  53.2173 216.5651 0006363 275.2032 182.5295 15.77665169  1300,6715.195,91.274,341.333,332.787,0.0
53825.0,STARLINK-4751,PAYLOAD,2022-09-27 22:00:01,15.76822856,0.0005887,53.2171,214.9048,270.0063,281.582,-0.0081024,-0.01186936,0.0,0 STARLINK-4751,1 53825U 22114H   22270.91668981 -.01186936  00000-0 -81024-2 0  9997,2 53825  53.2171 214.9048 0005887 270.0063 281.5820 15.76822856  1971,6717.5859999999975,91.323,343.406,335.496,0.0
53825.0,STARLINK-4751,PAYLOAD,2022-09-28 14:00:01,15.75169644,0.0001123,53.2174,211.5932,28.6425,347.3121,-0.0095919,-0.01311716,0.0,0 STARLINK-4751,1 53825U 22114H   22271.58334491 -.01311716  00000-0 -95919-2 0  9991,2 53825  53.2174 211.5932 0001123  28.6425 347.3121 15.75169644  1307,6722.285,91.419,344.905,343.396,0.0
53825.0,STARLINK-4751,PAYLOAD,2022-09-28 22:00:00,15.74132753,0.0001284,53.2172,209.9395,53.8413,52.8353,-0.0070256,-0.00921155,0.0,0 STARLINK-4751,1 53825U 22114H   22271.91667824 -.00921155  00000-0 -70256-2 0  9997,2 53825  53.2172 209.9395 0001284  53.8413  52.8353 15.74132753  1309,6725.236999999999,91.479,347.966,346.23900000000015,0.0
53825.0,STARLINK-4751,PAYLOAD,2022-09-29 06:00:00,15.73336703,0.000125,53.2175,208.2907,59.9843,136.3352,-0.0014747,-0.00203837,0.0,0 STARLINK-4751,1 53825U 22114H   22272.25001157 -.00203837  00000-0 -14747-2 0  9999,2 53825  53.2175 208.2907 0001250  59.9843 136.3352 15.73336703  2184,6727.505,91.525,350.211,348.53,0.0
53825.0,STARLINK-4751,PAYLOAD,2022-09-29 14:00:01,15.73205071,0.0001165999999999,53.2175,206.6397,62.8204,222.5005,-1.2132e-05,-2.322e-05,0.0,0 STARLINK-4751,1 53825U 22114H   22272.58334491 -.00002322  00000-0 -12132-4 0  9999,2 53825  53.2175 206.6397 0001166  62.8204 222.5005 15.73205071  1308,6727.880999999999,91.533,350.53,348.961,0.0
53825.0,STARLINK-4751,PAYLOAD,2022-09-29 22:00:00,15.73292796,0.000117,53.2153,204.9868,65.2755,309.0116,-0.00061317,-0.00086137,0.0,0 STARLINK-4751,1 53825U 22114H   22272.91667824 -.00086137  00000-0 -61317-3 0  9999,2 53825  53.2153 204.9868 0001170  65.2755 309.0116 15.73292796  1305,6727.630999999999,91.528,350.283,348.708,0.0
53825.0,STARLINK-4751,PAYLOAD,2022-09-30 06:00:02,15.73199834,0.0001209,53.2152,203.3388,54.9451,48.4277,3.0442e-05,3.654e-05,0.0,0 STARLINK-4751,1 53825U 22114H   22273.25002315  .00003654  00000-0  30442-4 0  9992,2 53825  53.2152 203.3388 0001209  54.9451  48.4277 15.73199834  2341,6727.896,91.533,350.574,348.94699999999995,0.0
53825.0,STARLINK-4751,PAYLOAD,2022-09-30 14:00:01,15.73203265,0.0001085999999999,53.2154,201.6873,64.1459,128.0873,-0.00016665,-0.00023944,0.0,0 STARLINK-4751,1 53825U 22114H   22273.58334491 -.00023944  00000-0 -16665-3 0  9997,2 53825  53.2154 201.6873 0001086  64.1459 128.0873 15.73203265  1303,6727.886,91.533,350.482,349.02,0.0
53825.0,STARLINK-4751,PAYLOAD,2022-09-30 22:00:00,15.73204241,0.0001051,53.2154,200.0381,65.3051,215.8612,0.00037227,0.00051958,0.0,0 STARLINK-4751,1 53825U 22114H   22273.91667824  .00051958  00000-0  37227-3 0  9994,2 53825  53.2154 200.0381 0001051  65.3051 215.8612 15.73204241  1304,6727.8830000000025,91.533,350.455,349.041,0.0
53825.0,STARLINK-4751,PAYLOAD,2022-10-01 06:00:00,15.73243736,0.0001219,53.2149,198.3902,55.3727,314.75,-8.505299999999999e-05,-0.00012561,0.0,0 STARLINK-4751,1 53825U 22114H   22274.25001157 -.00012561  00000-0 -85053-4 0  9993,2 53825  53.2149 198.3902 0001219  55.3727 314.7500 15.73243736  2499,6727.77,91.531,350.456,348.815,0.0
53825.0,STARLINK-4751,PAYLOAD,2022-10-01 14:00:01,15.73203177,0.0001020999999999,53.2148,196.7386,69.3796,29.7255,-4.496100000000001e-05,-6.925e-05,0.0,0 STARLINK-4751,1 53825U 22114H   22274.58334491 -.00006925  00000-0 -44961-4 0  9999,2 53825  53.2148 196.7386 0001021  69.3796  29.7255 15.73203177  1302,6727.886,91.533,350.43800000000016,349.064,0.0
53825.0,STARLINK-4751,PAYLOAD,2022-10-01 22:00:00,15.73212333,0.0001063,53.2149,195.0897,70.4446,117.5796,-0.000775,-0.00108053,0.0,0 STARLINK-4751,1 53825U 22114H   22274.91667824 -.00108053  00000-0 -77500-3 0  9994,2 53825  53.2149 195.0897 0001063  70.4446 117.5796 15.73212333  1303,6727.86,91.532,350.44,349.01,0.0
53825.0,STARLINK-4751,PAYLOAD,2022-10-02 06:00:00,15.73123942,0.000107,53.2147,193.4416,59.0805,217.8488,0.00015951,0.00021752,0.0,0 STARLINK-4751,1 53825U 22114H   22275.25001157  .00021752  00000-0  15951-3 0  9993,2 53825  53.2147 193.4416 0001070  59.0805 217.8488 15.73123942  2658,6728.111999999999,91.538,350.69699999999995,349.25699999999995,0.0
53825.0,STARLINK-4751,PAYLOAD,2022-10-02 14:00:01,15.73103699,0.0001068,53.215,191.7901,75.4677,290.3155,0.00078916,0.00111148,0.0,0 STARLINK-4751,1 53825U 22114H   22275.58334491  .00111148  00000-0  78916-3 0  9998,2 53825  53.2150 191.7901 0001068  75.4677 290.3155 15.73103699  1303,6728.17,91.539,350.75300000000016,349.316,0.0
53825.0,STARLINK-4751,PAYLOAD,2022-10-02 22:00:00,15.73197889,0.0001159999999999,53.2152,190.1414,74.1566,20.4774,0.00034958,0.00048721,0.0,0 STARLINK-4751,1 53825U 22114H   22275.91667824  .00048721  00000-0  34958-3 0  9998,2 53825  53.2152 190.1414 0001160  74.1566  20.4774 15.73197889  2767,6727.901,91.533,350.547,348.986,0.0
53825.0,STARLINK-4751,PAYLOAD,2022-10-03 14:00:01,15.73260815,0.0001074,53.2148,186.8413,81.6408,190.968,-4.7886e-05,-7.352e-05,0.0,0 STARLINK-4751,1 53825U 22114H   22276.58334491 -.00007352  00000-0 -47886-4 0  9995,2 53825  53.2148 186.8413 0001074  81.6408 190.9680 15.73260815  1303,6727.722,91.53,350.309,348.86400000000015,0.0
53825.0,STARLINK-4751,PAYLOAD,2022-10-03 22:00:00,15.73277294,9.4e-05,53.215,185.1928,78.0145,283.5589,-0.00033323,-0.00047277,0.0,0 STARLINK-4751,1 53825U 22114H   22276.91667824 -.00047277  00000-0 -33323-3 0  9991,2 53825  53.2150 185.1928 0000940  78.0145 283.5589 15.73277294  1304,6727.675,91.529,350.172,348.907,0.0
53825.0,STARLINK-4751,PAYLOAD,2022-10-04 14:00:01,15.73189782,9.53e-05,53.2152,181.8925,85.4551,94.1007,5.841e-05,7.582e-05,0.0,0 STARLINK-4751,1 53825U 22114H   22277.58334491  .00007582  00000-0  58410-4 0  9994,2 53825  53.2152 181.8925 0000953  85.4551  94.1007 15.73189782  1308,6727.924,91.534,350.43,349.148,0.0
53825.0,STARLINK-4751,PAYLOAD,2022-10-04 22:00:00,15.73192348,0.0001022,53.2156,180.2442,80.1026,188.3247,-0.00015827,-0.00022763,0.0,0 STARLINK-4751,1 53825U 22114H   22277.91667824 -.00022763  00000-0 -15827-3 0  9994,2 53825  53.2156 180.2442 0001022  80.1026 188.3247 15.73192348  1300,6727.917,91.534,350.47,349.094,0.0
